[{"OBJECT_NAME":"STARLINK-31045","OBJECT_ID":"2023-192L","EPOCH":"2026-03-09T11:50:24.156096","MEAN_MOTION":15.3018162,"ECCENTRICITY":0.00010028,"INCLINATION":53.1602,"RA_OF_ASC_NODE":140.4943,"ARG_OF_PERICENTER":103.4941,"MEAN_ANOMALY":256.6172,"EPHEMERIS_TYPE":0,"CLASSIFICATION_TYPE":"U","NORAD_CAT_ID":58541,"ELEMENT_SET_NO":999,"REV_AT_EPOCH":12486,"BSTAR":-2.8881495e-5,"MEAN_MOTION_DOT":-1.214e-5,"MEAN_MOTION_DDOT":0},{"OBJECT_NAME":"COSMOS 1862","OBJECT_ID":"1987-055A","EPOCH":"2026-03-09T22:37:02.390592","MEAN_MOTION":15.30492139,"ECCENTRICITY":0.00097484,"INCLINATION":82.4856,"RA_OF_ASC_NODE":47.1862,"ARG_OF_PERICENTER":26.6325,"MEAN_ANOMALY":333.5414,"EPHEMERIS_TYPE":0,"CLASSIFICATION_TYPE":"U","NORAD_CAT_ID":18152,"ELEMENT_SET_NO":999,"REV_AT_EPOCH":8987,"BSTAR":0.00034125048,"MEAN_MOTION_DOT":0.00010107,"MEAN_MOTION_DDOT":0}]
